NORAD_CAT_ID,OBJECT_NAME,OBJECT_TYPE,EPOCH,MEAN_MOTION,ECCENTRICITY,INCLINATION,RA_OF_ASC_NODE,ARG_OF_PERICENTER,MEAN_ANOMALY,BSTAR,MEAN_MOTION_DOT,MEAN_MOTION_DDOT,TLE_LINE0,TLE_LINE1,TLE_LINE2,SEMIMAJOR_AXIS,PERIOD,APOGEE,PERIGEE,DECAYED
51462.0,STARLINK-3166,PAYLOAD,2022-03-13 06:00:00,15.58082466,0.0001224,53.2173,347.3417,87.3465,101.0181,-0.010115,-0.00709513,0.0,0 STARLINK-3166,1 51462U 22010G   22072.25001157 -.00709513  00000-0 -10115-1 0  9993,2 51462  53.2173 347.3417 0001224  87.3465 101.0181 15.58082466  7185,6771.344,92.421,394.038,392.38,0.0
51462.0,STARLINK-3166,PAYLOAD,2022-03-13 14:00:01,15.57573381,0.0001205,53.2175,345.7281,75.5281,183.2921,-0.010336,-0.00711044,0.0,0 STARLINK-3166,1 51462U 22010G   22072.58334491 -.00711044  00000-0 -10336-1 0  9996,2 51462  53.2175 345.7281 0001205  75.5281 183.2921 15.57573381  3711,6772.819,92.452,395.501,393.86800000000005,0.0
51462.0,STARLINK-3166,PAYLOAD,2022-03-13 22:00:01,15.57065747,0.0001159,53.2177,344.1187,69.70100000000001,259.0245,-0.0106,-0.00715021,0.0,0 STARLINK-3166,1 51462U 22010G   22072.91668981 -.00715021  00000-0 -10600-1 0  9990,2 51462  53.2177 344.1187 0001159  69.7010 259.0245 15.57065747  3706,6774.291,92.482,396.942,395.371,0.0
51462.0,STARLINK-3166,PAYLOAD,2022-03-14 04:00:00,15.56681346,0.0001182,53.2175,342.9129,100.497,190.1428,-0.0107,-0.00711726,0.0,0 STARLINK-3166,1 51462U 22010G   22073.16667824 -.00711726  00000-0 -10700-1 0  9992,2 51462  53.2175 342.9129 0001182 100.4970 190.1428 15.56681346  7328,6775.406999999997,92.504,398.072,396.471,0.0
51462.0,STARLINK-3166,PAYLOAD,2022-03-14 14:00:01,15.5604366,0.0001104,53.2172,340.9006,74.4309,32.1413,-0.010956,-0.00711579,0.0,0 STARLINK-3166,1 51462U 22010G   22073.58335648 -.00711579  00000-0 -10956-1 0  9993,2 51462  53.2172 340.9006 0001104  74.4309  32.1413 15.56043660  3682,6777.2580000000025,92.542,399.871,398.374,0.0
51462.0,STARLINK-3166,PAYLOAD,2022-03-14 20:00:01,15.55663806,0.0001101,53.2175,339.696,75.859,351.7071,-0.011181,-0.00715621,0.0,0 STARLINK-3166,1 51462U 22010G   22073.83334491 -.00715621  00000-0 -11181-1 0  9999,2 51462  53.2175 339.6960 0001101  75.8590 351.7071 15.55663806  3682,6778.361,92.565,400.972,399.479,0.0
51462.0,STARLINK-3166,PAYLOAD,2022-03-14 22:00:00,15.55533502,0.0001358,53.2173,339.295,63.9993,110.5109,-0.011156,-0.00711035,0.0,0 STARLINK-3166,1 51462U 22010G   22073.91667824 -.00711035  00000-0 -11156-1 0  9994,2 51462  53.2173 339.2950 0001358  63.9993 110.5109 15.55533502  7444,6778.739000000001,92.573,401.525,399.684,0.0
51462.0,STARLINK-3166,PAYLOAD,2022-03-15 00:00:00,15.55406966,0.0001284999999999,53.2173,338.8941,69.4409,211.9737,-0.011243,-0.00713025,0.0,0 STARLINK-3166,1 51462U 22010G   22074.00001157 -.00713025  00000-0 -11243-1 0  9994,2 51462  53.2173 338.8941 0001285  69.4409 211.9737 15.55406966  3690,6779.107,92.58,401.843,400.101,0.0
51462.0,STARLINK-3166,PAYLOAD,2022-03-15 22:00:00,15.54006118,0.000115,53.2176,334.4825,66.8545,307.9882,-0.011874,-0.00714887,0.0,0 STARLINK-3166,1 51462U 22010G   22074.91667824 -.00714887  00000-0 -11874-1 0  9990,2 51462  53.2176 334.4825 0001150  66.8545 307.9882 15.54006118  7593,6783.18,92.664,405.825,404.265,0.0
51462.0,STARLINK-3166,PAYLOAD,2022-03-16 14:00:01,15.52985109,0.0001215,53.2173,331.2787,72.8064,72.5294,-0.012294,-0.00713204,0.0,0 STARLINK-3166,1 51462U 22010G   22075.58334491 -.00713204  00000-0 -12294-1 0  9994,2 51462  53.2173 331.2787 0001215  72.8064  72.5294 15.52985109  3702,6786.153,92.725,408.843,407.193,0.0
51462.0,STARLINK-3166,PAYLOAD,2022-03-16 20:00:01,15.52603366,0.0001242,53.2177,330.08,61.2597,42.3778,-0.012486,-0.00714258,0.0,0 STARLINK-3166,1 51462U 22010G   22075.83334491 -.00714258  00000-0 -12486-1 0  9995,2 51462  53.2177 330.0800 0001242  61.2597  42.3778 15.52603366  3694,6787.265,92.747,409.973,408.287,0.0
51462.0,STARLINK-3166,PAYLOAD,2022-03-17 06:00:00,15.51966707,0.0001197,53.2172,328.0828,85.4613,187.9136,-0.012796,-0.00724369,0.0,0 STARLINK-3166,1 51462U 22010G   22076.25001157 -.00724369  00000-0 -12796-1 0  9990,2 51462  53.2172 328.0828 0001197  85.4613 187.9136 15.51966707  7803,6789.121,92.785,411.799,410.174,0.0
51462.0,STARLINK-3166,PAYLOAD,2022-03-17 14:00:01,15.514529199999998,0.0001098,53.2173,326.4843,85.4526,251.0259,-0.01292,-0.00709373,0.0,0 STARLINK-3166,1 51462U 22010G   22076.58334491 -.00709373  00000-0 -12920-1 0  9993,2 51462  53.2173 326.4843 0001098  85.4526 251.0259 15.51452920  3695,6790.62,92.816,413.231,411.74,0.0
51462.0,STARLINK-3166,PAYLOAD,2022-03-17 22:00:00,15.50945864,0.0001107999999999,53.2174,324.8903,74.6226,324.3421,-0.013244,-0.00722794,0.0,0 STARLINK-3166,1 51462U 22010G   22076.91667824 -.00722794  00000-0 -13244-1 0  9991,2 51462  53.2174 324.8903 0001108  74.6226 324.3421 15.50945864  3692,6792.1,92.847,414.718,413.213,0.0
51462.0,STARLINK-3166,PAYLOAD,2022-03-18 08:00:01,15.50304972,0.0001242,53.2171,322.8964,78.8017,127.4138,-0.01345,-0.00717812,0.0,0 STARLINK-3166,1 51462U 22010G   22077.33334491 -.00717812  00000-0 -13450-1 0  9993,2 51462  53.2171 322.8964 0001242  78.8017 127.4138 15.50304972  7978,6793.972,92.885,416.681,414.99300000000005,0.0
51462.0,STARLINK-3166,PAYLOAD,2022-03-18 14:00:01,15.49926048,0.0001247,53.2172,321.7009,78.1901,83.914,-0.013749,-0.00723482,0.0,0 STARLINK-3166,1 51462U 22010G   22077.58334491 -.00723482  00000-0 -13749-1 0  9991,2 51462  53.2172 321.7009 0001247  78.1901  83.9140 15.49926048  3727,6795.079000000002,92.908,417.792,416.097,0.0
51462.0,STARLINK-3166,PAYLOAD,2022-03-18 22:00:00,15.49413317,0.0001333,53.2173,320.1107,78.3011,144.453,-0.0139,-0.00718623,0.0,0 STARLINK-3166,1 51462U 22010G   22077.91667824 -.00718623  00000-0 -13900-1 0  9997,2 51462  53.2173 320.1107 0001333  78.3011 144.4530 15.49413317  3771,6796.578,92.938,419.349,417.537,0.0
51462.0,STARLINK-3166,PAYLOAD,2022-03-19 02:00:01,15.49158023,0.0001217,53.2175,319.3158,61.0938,11.8198,-0.014015,-0.00718071,0.0,0 STARLINK-3166,1 51462U 22010G   22078.08335648 -.00718071  00000-0 -14015-1 0  9997,2 51462  53.2175 319.3158 0001217  61.0938  11.8198 15.49158023  8094,6797.325,92.954,420.017,418.36300000000006,0.0
51462.0,STARLINK-3166,PAYLOAD,2022-03-19 14:00:01,15.4839312,0.0001128,53.2174,316.9286,75.5643,266.6525,-0.014398,-0.00718039,0.0,0 STARLINK-3166,1 51462U 22010G   22078.58334491 -.00718039  00000-0 -14398-1 0  9995,2 51462  53.2174 316.9286 0001128  75.5643 266.6525 15.48393120  3695,6799.563,93.0,422.195,420.661,0.0
51462.0,STARLINK-3166,PAYLOAD,2022-03-19 22:00:01,15.4788628,0.0001219,53.2176,315.3422,61.5481,339.5425,-0.014763,-0.00722882,0.0,0 STARLINK-3166,1 51462U 22010G   22078.91668981 -.00722882  00000-0 -14763-1 0  9993,2 51462  53.2176 315.3422 0001219  61.5481 339.5425 15.47886280  3713,6801.047,93.03,423.742,422.083,0.0
51462.0,STARLINK-3166,PAYLOAD,2022-03-20 06:00:00,15.47277887,0.0001058,53.217,313.7535,64.0351,35.2505,-0.012393,-0.0059549,0.0,0 STARLINK-3166,1 51462U 22010G   22079.25001157 -.00595490  00000-0 -12393-1 0  9997,2 51462  53.2170 313.7535 0001058  64.0351  35.2505 15.47277887  8271,6802.83,93.067,425.415,423.975,0.0
51462.0,STARLINK-3166,PAYLOAD,2022-03-20 12:00:00,15.46991625,0.0001141,53.2174,312.5638,66.9394,345.5343,-0.015146,-0.00719094,0.0,0 STARLINK-3166,1 51462U 22010G   22079.50001157 -.00719094  00000-0 -15146-1 0  9992,2 51462  53.2174 312.5638 0001141  66.9394 345.5343 15.46991625  8311,6803.669,93.084,426.311,424.758,0.0
51462.0,STARLINK-3166,PAYLOAD,2022-03-20 14:00:01,15.46865965,0.00013,53.2174,312.1674,69.0224,87.7897,-0.015286,-0.0072234,0.0,0 STARLINK-3166,1 51462U 22010G   22079.58334491 -.00722340  00000-0 -15286-1 0  9993,2 51462  53.2174 312.1674 0001300  69.0224  87.7897 15.46865965  3681,6804.038000000001,93.091,426.787,425.018,0.0
51462.0,STARLINK-3166,PAYLOAD,2022-03-20 22:00:01,15.46354139,0.0001465,53.2175,310.5845,60.2583,153.5914,-0.015489,-0.007193,0.0,0 STARLINK-3166,1 51462U 22010G   22079.91668981 -.00719300  00000-0 -15489-1 0  9991,2 51462  53.2175 310.5845 0001465  60.2583 153.5914 15.46354139  3708,6805.5390000000025,93.122,428.401,426.407,0.0
51462.0,STARLINK-3166,PAYLOAD,2022-03-21 14:00:01,15.45333435,0.0001176,53.2175,307.4170000000001,77.9337,247.9608,-0.016004,-0.00717555,0.0,0 STARLINK-3166,1 51462U 22010G   22080.58334491 -.00717555  00000-0 -16004-1 0  9996,2 51462  53.2175 307.4170 0001176  77.9337 247.9608 15.45333435  8477,6808.536,93.184,431.201,429.6,0.0
51462.0,STARLINK-3166,PAYLOAD,2022-03-21 22:00:00,15.44826844,0.0001206,53.2174,305.838,64.837,316.19,-0.016427,-0.0072334999999999,0.0,0 STARLINK-3166,1 51462U 22010G   22080.91667824 -.00723350  00000-0 -16427-1 0  9991,2 51462  53.2174 305.8380 0001206  64.8370 316.1900 15.44826844  3690,6810.024,93.214,432.71,431.068,0.0
51462.0,STARLINK-3166,PAYLOAD,2022-03-22 14:00:01,15.43805446,0.000126,53.2174,302.6777,74.518,54.9418,-0.016926,-0.00720024,0.0,0 STARLINK-3166,1 51462U 22010G   22081.58334491 -.00720024  00000-0 -16926-1 0  9995,2 51462  53.2174 302.6777 0001260  74.5180  54.9418 15.43805446  8636,6813.026999999999,93.276,435.751,434.034,0.0
51462.0,STARLINK-3166,PAYLOAD,2022-03-22 22:00:01,15.43183703,0.0001493,53.217,301.1007,86.387,96.4937,-0.013496,-0.00565554,0.0,0 STARLINK-3166,1 51462U 22010G   22081.91668981 -.00565554  00000-0 -13496-1 0  9990,2 51462  53.2170 301.1007 0001493  86.3870  96.4937 15.43183703  3656,6814.857,93.314,437.74,435.705,0.0
51462.0,STARLINK-3166,PAYLOAD,2022-03-23 14:00:01,15.42274245,0.0001254,53.2175,297.9491,88.5751,198.9365,-0.017756,-0.00717358,0.0,0 STARLINK-3166,1 51462U 22010G   22082.58334491 -.00717358  00000-0 -17756-1 0  9994,2 51462  53.2175 297.9491 0001254  88.5751 198.9365 15.42274245  8780,6817.536,93.369,440.256,438.546,0.0
